[
    {
        "CCSDS_OMM_VERS": "3.0",
        "COMMENT": "GENERATED VIA SPACE-TRACK.ORG API",
        "CREATION_DATE": "2025-04-14T03:05:54",
        "ORIGINATOR": "18 SPCS",
        "OBJECT_NAME": "GALILEO 21 (2C7)",
        "OBJECT_ID": "2017-079C",
        "CENTER_NAME": "EARTH",
        "REF_FRAME": "TEME",
        "TIME_SYSTEM": "UTC",
        "MEAN_ELEMENT_THEORY": "SGP4",
        "EPOCH": "2025-04-12T23:25:43.136544",
        "MEAN_MOTION": "1.70474834",
        "ECCENTRICITY": "0.00016350",
        "INCLINATION": "55.2173",
        "RA_OF_ASC_NODE": "233.3413",
        "ARG_OF_PERICENTER": "320.6894",
        "MEAN_ANOMALY": "39.2497",
        "EPHEMERIS_TYPE": "0",
        "CLASSIFICATION_TYPE": "U",
        "NORAD_CAT_ID": "43057",
        "ELEMENT_SET_NO": "999",
        "REV_AT_EPOCH": "4565",
        "BSTAR": "0.00000000000000",
        "MEAN_MOTION_DOT": "-0.00000017",
        "MEAN_MOTION_DDOT": "0.0000000000000",
        "SEMIMAJOR_AXIS": "29600.224",
        "PERIOD": "844.699",
        "APOAPSIS": "23226.928",
        "PERIAPSIS": "23217.249",
        "OBJECT_TYPE": "PAYLOAD",
        "RCS_SIZE": "LARGE",
        "COUNTRY_CODE": "ESA",
        "LAUNCH_DATE": "2017-12-12",
        "SITE": "FRGUI",
        "DECAY_DATE": null,
        "FILE": "4701263",
        "GP_ID": "285538834",
        "TLE_LINE0": "0 GALILEO 21 (2C7)",
        "TLE_LINE1": "1 43057U 17079C   25102.97619371 -.00000017  00000-0  00000-0 0  9995",
        "TLE_LINE2": "2 43057  55.2173 233.3413 0001635 320.6894  39.2497  1.70474834 45652"
    }
]